{
  "links" : {
    "next" : "https://api.nasa.gov/neo/rest/v1/feed?start_date=2009-04-16&end_date=2009-04-16&detailed=true&api_key=t0TVs3DtDT2H8Oy2Zy8m2eVrNsAVKAexjcZXUckd",
    "prev" : "https://api.nasa.gov/neo/rest/v1/feed?start_date=2009-04-14&end_date=2009-04-14&detailed=true&api_key=t0TVs3DtDT2H8Oy2Zy8m2eVrNsAVKAexjcZXUckd",
    "self" : "https://api.nasa.gov/neo/rest/v1/feed?start_date=2009-04-15&end_date=2009-04-15&detailed=true&api_key=t0TVs3DtDT2H8Oy2Zy8m2eVrNsAVKAexjcZXUckd"
  },
  "element_count" : 4,
  "near_earth_objects" : {
    "2009-04-15" : [ {
      "links" : {
        "self" : "https://api.nasa.gov/neo/rest/v1/neo/2085774?api_key=t0TVs3DtDT2H8Oy2Zy8m2eVrNsAVKAexjcZXUckd"
      },
      "neo_reference_id" : "2085774",
      "name" : "85774 (1998 UT18)",
      "nasa_jpl_url" : "http://ssd.jpl.nasa.gov/sbdb.cgi?sstr=2085774",
      "absolute_magnitude_h" : 19.2,
      "estimated_diameter" : {
        "kilometers" : {
          "estimated_diameter_min" : 0.3841978911,
          "estimated_diameter_max" : 0.8590926012
        },
        "meters" : {
          "estimated_diameter_min" : 384.1978910643,
          "estimated_diameter_max" : 859.0926012318
        },
        "miles" : {
          "estimated_diameter_min" : 0.2387294278,
          "estimated_diameter_max" : 0.5338152287
        },
        "feet" : {
          "estimated_diameter_min" : 1260.4918089193,
          "estimated_diameter_max" : 2818.5453698252
        }
      },
      "is_potentially_hazardous_asteroid" : true,
      "close_approach_data" : [ {
        "close_approach_date" : "2009-04-15",
        "epoch_date_close_approach" : 1239778800000,
        "relative_velocity" : {
          "kilometers_per_second" : "7.3508042692",
          "kilometers_per_hour" : "26462.8953692657",
          "miles_per_hour" : "16443.014069864"
        },
        "miss_distance" : {
          "astronomical" : "0.3857475486",
          "lunar" : "150.0558013916",
          "kilometers" : "57707012",
          "miles" : "35857476"
        },
        "orbiting_body" : "Earth"
      } ],
      "orbital_data" : {
        "orbit_id" : "138",
        "orbit_determination_date" : "2017-04-06 09:28:37",
        "orbit_uncertainty" : "0",
        "minimum_orbit_intersection" : ".0371195",
        "jupiter_tisserand_invariant" : "4.660",
        "epoch_osculation" : "2455670.5",
        "eccentricity" : ".3291068038481656",
        "semi_major_axis" : "1.40368306001145",
        "inclination" : "13.58936740086063",
        "ascending_node_longitude" : "64.69324536867637",
        "orbital_period" : "607.4380812320602",
        "perihelion_distance" : ".9417214145152691",
        "perihelion_argument" : "50.04301234482033",
        "aphelion_distance" : "1.865644705507632",
        "perihelion_time" : "2455441.987843836562",
        "mean_anomaly" : "135.4284144516947",
        "mean_motion" : ".5926529980962271",
        "equinox" : "J2000"
      }
    }, {
      "links" : {
        "self" : "https://api.nasa.gov/neo/rest/v1/neo/3449084?api_key=t0TVs3DtDT2H8Oy2Zy8m2eVrNsAVKAexjcZXUckd"
      },
      "neo_reference_id" : "3449084",
      "name" : "(2009 DE47)",
      "nasa_jpl_url" : "http://ssd.jpl.nasa.gov/sbdb.cgi?sstr=3449084",
      "absolute_magnitude_h" : 18.7,
      "estimated_diameter" : {
        "kilometers" : {
          "estimated_diameter_min" : 0.4836764882,
          "estimated_diameter_max" : 1.0815335068
        },
        "meters" : {
          "estimated_diameter_min" : 483.6764882185,
          "estimated_diameter_max" : 1081.533506775
        },
        "miles" : {
          "estimated_diameter_min" : 0.3005425432,
          "estimated_diameter_max" : 0.6720335566
        },
        "feet" : {
          "estimated_diameter_min" : 1586.8651696069,
          "estimated_diameter_max" : 3548.3383903678
        }
      },
      "is_potentially_hazardous_asteroid" : false,
      "close_approach_data" : [ {
        "close_approach_date" : "2009-04-15",
        "epoch_date_close_approach" : 1239778800000,
        "relative_velocity" : {
          "kilometers_per_second" : "11.2232983388",
          "kilometers_per_hour" : "40403.8740195756",
          "miles_per_hour" : "25105.3960539969"
        },
        "miss_distance" : {
          "astronomical" : "0.289767963",
          "lunar" : "112.7197341919",
          "kilometers" : "43348668",
          "miles" : "26935614"
        },
        "orbiting_body" : "Earth"
      } ],
      "orbital_data" : {
        "orbit_id" : "48",
        "orbit_determination_date" : "2017-03-08 06:18:03",
        "orbit_uncertainty" : "0",
        "minimum_orbit_intersection" : ".142668",
        "jupiter_tisserand_invariant" : "5.578",
        "epoch_osculation" : "2457800.5",
        "eccentricity" : ".2757154097662426",
        "semi_major_axis" : "1.095616931634947",
        "inclination" : "20.06047924051366",
        "ascending_node_longitude" : "29.85475188330016",
        "orbital_period" : "418.8770146815846",
        "perihelion_distance" : ".7935384603823843",
        "perihelion_argument" : "41.83968122640644",
        "aphelion_distance" : "1.39769540288751",
        "perihelion_time" : "2457736.353513619254",
        "mean_anomaly" : "55.13010809299955",
        "mean_motion" : ".8594408081180085",
        "equinox" : "J2000"
      }
    }, {
      "links" : {
        "self" : "https://api.nasa.gov/neo/rest/v1/neo/3451789?api_key=t0TVs3DtDT2H8Oy2Zy8m2eVrNsAVKAexjcZXUckd"
      },
      "neo_reference_id" : "3451789",
      "name" : "(2009 FE)",
      "nasa_jpl_url" : "http://ssd.jpl.nasa.gov/sbdb.cgi?sstr=3451789",
      "absolute_magnitude_h" : 21.3,
      "estimated_diameter" : {
        "kilometers" : {
          "estimated_diameter_min" : 0.1460679643,
          "estimated_diameter_max" : 0.3266178974
        },
        "meters" : {
          "estimated_diameter_min" : 146.0679642714,
          "estimated_diameter_max" : 326.6178974458
        },
        "miles" : {
          "estimated_diameter_min" : 0.090762397,
          "estimated_diameter_max" : 0.2029508896
        },
        "feet" : {
          "estimated_diameter_min" : 479.2256199,
          "estimated_diameter_max" : 1071.581062656
        }
      },
      "is_potentially_hazardous_asteroid" : true,
      "close_approach_data" : [ {
        "close_approach_date" : "2009-04-15",
        "epoch_date_close_approach" : 1239778800000,
        "relative_velocity" : {
          "kilometers_per_second" : "12.1807889268",
          "kilometers_per_hour" : "43850.8401365153",
          "miles_per_hour" : "27247.2067503808"
        },
        "miss_distance" : {
          "astronomical" : "0.1034337553",
          "lunar" : "40.2357330322",
          "kilometers" : "15473470",
          "miles" : "9614769"
        },
        "orbiting_body" : "Earth"
      } ],
      "orbital_data" : {
        "orbit_id" : "25",
        "orbit_determination_date" : "2017-04-06 09:01:02",
        "orbit_uncertainty" : "0",
        "minimum_orbit_intersection" : ".00157437",
        "jupiter_tisserand_invariant" : "3.158",
        "epoch_osculation" : "2458000.5",
        "eccentricity" : ".6103356820481181",
        "semi_major_axis" : "2.535018325758817",
        "inclination" : "1.90768281902402",
        "ascending_node_longitude" : "39.82531371158913",
        "orbital_period" : "1474.246419537318",
        "perihelion_distance" : ".987806186902331",
        "perihelion_argument" : "201.0274473634212",
        "aphelion_distance" : "4.082230464615303",
        "perihelion_time" : "2457909.842361672028",
        "mean_anomaly" : "22.13792034055782",
        "mean_motion" : ".244192555077043",
        "equinox" : "J2000"
      }
    }, {
      "links" : {
        "self" : "https://api.nasa.gov/neo/rest/v1/neo/2484795?api_key=t0TVs3DtDT2H8Oy2Zy8m2eVrNsAVKAexjcZXUckd"
      },
      "neo_reference_id" : "2484795",
      "name" : "484795 (2009 DE47)",
      "nasa_jpl_url" : "http://ssd.jpl.nasa.gov/sbdb.cgi?sstr=2484795",
      "absolute_magnitude_h" : 18.7,
      "estimated_diameter" : {
        "kilometers" : {
          "estimated_diameter_min" : 0.4836764882,
          "estimated_diameter_max" : 1.0815335068
        },
        "meters" : {
          "estimated_diameter_min" : 483.6764882185,
          "estimated_diameter_max" : 1081.533506775
        },
        "miles" : {
          "estimated_diameter_min" : 0.3005425432,
          "estimated_diameter_max" : 0.6720335566
        },
        "feet" : {
          "estimated_diameter_min" : 1586.8651696069,
          "estimated_diameter_max" : 3548.3383903678
        }
      },
      "is_potentially_hazardous_asteroid" : false,
      "close_approach_data" : [ {
        "close_approach_date" : "2009-04-15",
        "epoch_date_close_approach" : 1239778800000,
        "relative_velocity" : {
          "kilometers_per_second" : "11.2233020706",
          "kilometers_per_hour" : "40403.887454295",
          "miles_per_hour" : "25105.404401809"
        },
        "miss_distance" : {
          "astronomical" : "0.2897679989",
          "lunar" : "112.7197570801",
          "kilometers" : "43348676",
          "miles" : "26935620"
        },
        "orbiting_body" : "Earth"
      } ],
      "orbital_data" : {
        "orbit_id" : "84",
        "orbit_determination_date" : "2017-05-28 06:20:50",
        "orbit_uncertainty" : "0",
        "minimum_orbit_intersection" : ".143378",
        "jupiter_tisserand_invariant" : "5.578",
        "epoch_osculation" : "2458000.5",
        "eccentricity" : ".2757388626389926",
        "semi_major_axis" : "1.095534471257382",
        "inclination" : "20.06188686785353",
        "ascending_node_longitude" : "29.85204408495715",
        "orbital_period" : "418.8297261094652",
        "perihelion_distance" : ".7934530421710616",
        "perihelion_argument" : "41.83420725847328",
        "aphelion_distance" : "1.397615900343703",
        "perihelion_time" : "2458155.185468784993",
        "mean_anomaly" : "227.0419855823626",
        "mean_motion" : ".8595378445175367",
        "equinox" : "J2000"
      }
    } ]
  }
}